"account_number","dealer_name","street_address_1","street_address_2","postal_code","city","telephone_1","state_province","country","email","website"
"001143","GUERRIER - VELOLAND - SARL ACC","44 RUE DU PLATEAU","PARC D ACTIVITE DE LA NEUVE","01440","VIRIAT","04.74.22.29.48","","France","",""
"101216","AC CYCLES & MOTOS","45 AVENUE ALBERT THOMAS","","03100","MONTLUCON","04.70.03.86.64","","France","",""
"101756","BOURBON CYCLES","19 AVENUE EMILE GUILLAUMIN","","03160","BOURBON L'ARCHAMBAULT","04 70 66 36 57","","France","",""
"101524","DYNAMIC VELO","13 BIS RUE BALMENS","","05000","GAP","04.92.53.79.78","","France","",""
"101066","MOUNTAIN CYCLES","RUE DES FONTAINIERS","CENTRE COMMERCIAL SUD","05100","BRIANCON","09.64.28.13.21","","France","",""
"100529","VELO CONCEPT","36 BD RAIMBALDI","","06000","NICE","04.93.80.09.95","","France","",""
"101739","BR CYCLES - RS CYCLES","3 RUE DE LA VERRERIE","","06150","LA BOCCA","06.61.11.42.45","","France","",""
"000003","BIKE THE PLANET SARL","CYCLES ANTIPOLIS","14 AVENUE PHILIPPE ROCHAT","06600","ANTIBES","04.93.33.94.99","","France","",""
"001912","VELO POLE 2000","CULTURE VELO ST PERAY","POLE NORD 2000 - 1 AVENUE DENIS PAPIN","07130","ST PERAY","04.75.40.42.08","","France","",""
"101828","CYCLES ZANET EURL","ALLEE DE L'ANGELIQUE","GRAND PARC","08000","LA FRANCHEVILLE","03 24 52 05 87","","France","",""
"000128","FUN SPORTS CYCLES","SARL SPORTS DIFF","14 RUE JEAN MONNET","11000","CARCASSONNE","04.68.71.67.06","","France","",""
"100120","EVASION DEUX ROUES","","85 ALLEE D'IENA","11000","CARCASSONNE","04.68.11.90.40","","France","",""
"002091","RICCI SARL","PARC GRANET - BAT C","510 AVENUE DE BAGATELLE","13090","AIX EN PROVENCE","04.42.59.03.64","","France","",""
"101060","TINABICI SARL","CYCLES TINAZZI THIERRY","RN 113 - QUARTIER DES CADESTEAUX","13127","VITROLLES","09.61.22.31.56","","France","",""
"001436","R.S. CYCLES - ARLES","ZONE FOURCHON","QUARTIER DU PONT DE GLEIZ","13200","ARLES","04.90.49.94.02","","France","",""
"000315","TINAZZI - SOFRETIN SPORTS","CD 2 - CAMP MAJOR - ZI LA BASTIDONNE","","13400","AUBAGNE","04.91.27.19.20","","France","",""
"000294","CYCLES 14 ST VIGOR","BOULEVARD WINSTON CHURCHILL","14400","ST VIGOR LE GRAND","02.31.92.27.75","","France","",""
"101439","CHRISTIAN MICHELOT SARL","BOUTICYCLE ANGOULEME","1324 RUE DES PLATANES - LES CHAUVAUDS","16430","CHAMPNIERS","05.45.68.93.64","","France","",""
"101275","MAZEROLLES  CYCLES","CYCLEXPERT  SARL","41 AVENUE DU CDT LISIACK","17440","AYTRE","05.46.44.28.08","","France","",""
"101676","PURCYCLE SARL","24 BOULEVARD JURANVILLE","","18000","BOURGES","02.48.02.55.80","","France","",""
"000402","SPECIALISTE VELOS","Z.A.C. DU MAZAUD","RUE ARMAND SOURIE","19100","BRIVE LA GAILLARDE","05.55.87.19.02","","France","",""
"100272","DOUHET FRANCOIS CYCLES","AVENUE TURGOT","","19200","USSEL","05.55.72.90.00","","France","",""
"101699","CYCLES DUTRION EURL","29 RUE PASTEUR","","21000","DIJON","03.80.66.54.50","","France","",""
"101200","CYCLE 22","15 RUE DEROYER","","22100","DINAN","02 96 85 07 60","","France","",""
"100443","INTERSPORT GUINGAMP 00380 000","C. SPORTS SARL","ZONE INTERMARCHE - SAINT AGATHON","22200","GUINGAMP","02.96.44.78.78","","France","",""
"101838","ARMOR CYCLES SARL","12 RUE D'ARMOR","","22400","LAMBALLE","02 96 31 04 23","","France","",""
"101588","CYCL'PARTNERS","CULTURE VELO SAINT BRIEUC","2 RUE CLAUDE SAUTEL - ZAC DE BREZILLET","22950","TREGUEUX","02.96.78.90.00","","France","",""
"100841","L R G CYCLES","CULTURE VELO PERIGUEUX","ZONE COMMERCIALE DU PONTEIX 2","24750","BOULAZAC","05.53.09.25.15","","France","",""
"002029","RACLE CYCLES  SARL","5, RUE ROBERT SCHUMANN","LES GRANDS PLANCHANTS","25300","PONTARLIER","03.81.46.87.54","","France","",""
"101775","FRED CYCLES","27 ROUTE DE RANS","","25610","ARC ET SENAN","03 81 57 50 58","","France","",""
"101708","PONTIA'S BIKE","CULTURE VELO MONTELIMAR","9  ALLEE HISPANO SUTZA - ZAC FORTUNEAU","26200","MONTELIMAR","04.75.91.70.11","","France","",""
"101880","LE MAILLON FORT","SARL PASCALAIN","47 RUE DE COCHEREL -  ZI NETREVILLE","27000","EVREUX","09 71 47 49 91","","France","",""
"100260","VERNON CYCLES","RUE LOUIS BLERIOT","","27950","ST MARCEL","02.32.21.24.08","","France","",""
"000851","VELO SPRINT  BREST","MR RIOU PIERRE","18, RUE DU PILIER ROUGE","29200","BREST","02.98.44.14.77","","France","",""
"101592","CYCLES PAB EURL","CYCLEXPERTS BREST","5  RUE ROSEMONDE GERARD","29850","GOUESNOU","02.98.42.58.57","","France","",""
"100873","EURL DCG","CYCLES  PASSIEU","2040 AVENUE DU MARECHAL JUIN","30000","NIMES","04.66.21.09.16","","France","",""
"100674","SPORT PASSION G.S.B.","CULTURE VELO ALES","287 QUAI BILINA","30100","ALES","04.66.86.04.73","","France","",""
"101800","ID CYCLES - PRO-CYCLES","IMMEUBLE GRAND ANGLES - P","AVENUE DE LA 2EME DB","30133","LES ANGLES","04.90.02.61.32","","France","",""
"100868","ESPACE CYCLE MOTARD","SARL SC VICTORIA FRANCE","170 RUE DE PERIOLE","31500","TOULOUSE","05.61.48.31.44","","France","",""
"101542","VERTICAL BIKE SARL","21 RUE PIERRE DE FERMAT","ZAC DE LEONIS","31600","MURET","05.34.47.69.12","","France","",""
"100597","JOLLY CYCLES SARL","P A - DE TAURE II -","AVENUE LEONARD DE VINCI","31880","LA SALVETAT SAINT GILLES","05.34.57.21.25","","France","",""
"000833","FOUCHY ET FILS","445 447 ROUTE DE TOULOUSE","","33140","VILLENAVE D'ORNON","05.56.37.32.09","","France","",""
"100661","FONTANEL CYCLES SARL","RUE PAUL LANGEVIN","","33210","LANGON","05.56.76.85.20","","France","",""
"101842","PHB CYCLES","VELOLAND BORDEAUX OUEST-E","AVENUE DE MAGUDA SORTIE  9 DE LA ROCADE","33320","EYSINES","07.70.01.67.32","","France","",""
"001962","CHABBERT","1 RUE FRANCOIS HUE","","34120","PEZENAS","04.67.98.12.90","","France","",""
"101661","CASTRIES CYCLES","201 AVENUE DE LA ROYALE","ZI DES COUSTELLIERS","34160","CASTRIES","06.85.23.11.96","","France","",""
"101516","MORENO EURL VELO & OXYGENE TOM","RUE DU PERE COSTE","CC INTERMARCHE LES PORTES","34300","AGDE","04.67.94.19.25","","France","",""
"001394","ST CHINIANAIS CYCLES SARL","AVENUE DE SAINT PONS","","34360","ST CHINIAN","04.67.38.14.16","","France","",""
"001930","CENTER CYCLE SPORT","VILLAGE DE LA METAIRIE","NÂ° 20","35131","CHARTRES DE BRETAGNE","02.99.05.09.70","","France","",""
"010100","THEBAULT - ST GREGOIRE","CENTRE COMMERCIAL LA FORG","","35760","ST GREGOIRE","02.99.68.95.59","","France","",""
"100599","CYCL'ONE","LE FORUM","","36330","LE POINCONNET","02.54.60.06.16","","France","",""
"100402","INTERSPORT L'ISLE D'ABEAU 0042","SPORTECHNIC S.A.","C C  ISLE D'ABEAU - LES SAYES","38080","L'ISLE D'ABEAU","04.74.27.11.93","","France","",""
"000018","ARGOUD CYCLES","124 AVENUE DE LA VALLOIRE","","38270","BEAUREPAIRE","04.74.84.71.89","","France","",""
"101407","ESPACE VELO","SARL SPORTS AIR","18 RUE MARCEAU LEYSSIEUX","38400","ST MARTIN D'HERES","04.76.24.56.37","","France","",""
"000272","DVELOS GRENOBLE","1 PLACE CHARLES DE GAULLE","","38950","ST MARTIN LE VINOUX","04.76.43.93.98","","France","",""
"101694","CYCLES BURDET","SARL PIERRE ETIENNE RICHA","17 ROUTE DE LYON","39200","ST CLAUDE","03.84.45.22.46","","France","",""
"100571","BARTEAU EURL","VELOLAND","28 ROUTE DE BORDEAUX","40800","AIRE SUR L'ADOUR","05.58.71.83.08","","France","",""
"101387","VAL DE LOIRE VELO SARL BLOIS","VELOLAND BLOIS","ZAC DES PERRIERES - RUE BERNARD PALISSY","41350","VINEUIL","02.54.50.01.03","","France","",""
"000643","CYCL IN  ST ETIENNE","SARL CYCLES MORETTO","18 RUE AUGUSTE RATEAU","42000","ST ETIENNE","04.77.41.78.15","","France","",""
"101722","CYCL'EXPERIENCES","BOUTICYCLE ROANNE MABLY","22 RUE DE L'ARTISANAT","42300","MABLY","04.77.78.51.84","","France","",""
"101628","GRESINSKI BIKES SARL","17 RUE DORIAN","","42700","FIRMINY","04.77.56.15.80","","France","",""
"000135","CYCLE SPORTS 45 CHALETTE","2 RUE NELSON MANDELA","","45120","CHALETTE SUR LOING","02.38.98.02.47","","France","",""
"000400","PILORGET SPORTS CYCLISTES - VE","99 RUE D'ALSACE","ZAC DES PROVINCES","45160","OLIVET","02.38.63.71.83","","France","",""
"101720","CYCLES 47","MRS. MAUREY ET GARRIGOU","38, AVENUE GOUDOUNECHE","47300","VILLENEUVE S/LOT","05.53.70.82.90","","France","",""
"100603","R.J.C. SARL","CULTURE VELO AGEN","2 ZAC DE GRESAILLE","47550","BOE","05.53.48.08.18","","France","",""
"100857","PLANETE 2 ROUES SARL","5 AVENUE DU PONT ROUPT","","48000","MENDE","04.66.49.17.00","","France","",""
"001503","CHAUVIERE CYCLES VELOLAND CHOL","5 RUE CHARLES DE MONTALEM","","49300","CHOLET","02.41.62.30.35","","France","",""
"101023","CENT POUR CENT VELO","CYCLES CREZE","22 BIS RUE DAVID D'ANGERS","49500","SEGRE","02.41.26.02.14","","France","",""
"101844","HEMISPHERE CYCLES EURL","ZAC DU PRE BARREAU","","49630","MAZE","06.21.11.01.98","","France","",""
"100610","DUGOUCHET SARL","ZONE D'ACTIVITE","LES CRUTELLES","50480","SAINTE MERE","02.33.41.42.56","","France","",""
"000332","ROYER REMI VELOLAND EPERNAY","10 PLACE HUGUES PLOMB","","51200","EPERNAY","03.26.55.29.61","","France","",""
"101822","BIKE CONNECTION RG SPORTS","46 RUE SARAH BERNARDHT","","51430","TINQUEUX","03.26.08.38.06","","France","",""
"101125","CYCLES SARL ATTITUDE","92 AVENUE DE PARIS","","53940","ST BERTHEVIN","02.43.98.76.93","","France","",""
"101310","PROBIKE 39 23 SARL 39 23","4 RUE D'ALBERTVILLE","ZI DU REVEILLEUX","54500","VANDOEUVRE","03.83.56.66.80","","France","",""
"101626","SPORT BIKE","AVENUE DE LA LIBERATION","","55000","FAINS VEEL","03.29.76.23.14","","France","",""
"101410","PRO-SHOP-BIKE","17 RUE PAUL IHUEL","","56240","PLOUAY","02.97.11.15.98","","France","",""
"101673","BIKE TOUL SARL","CYCLEXPERTS VANNES","2 RUE DE LORRAINE","56860","SENE","02.97.01.00.74","","France","",""
"000274","PIERRON","1 ROUTE DE METZ","","57100","THIONVILLE","03.82.82.73.35","","France","",""
"001918","PORCIN JEROME","2 ROUTE DE COSNE","","58220","DONZY","03.86.39.32.41","","France","",""
"101706","CYCLE WYPELIER HUYGENS","2 BIS PLACE DE LA CESSOIE","","59130","LAMBERSART","03 20 40 73 20","","France","",""
"000057","BARELLI CYCLES","VELOLAND CROIX","163 RUE KLEBER","59170","CROIX","03.20.24.44.30","","France","",""
"101051","MW-TEAM MANAGEMENT SARL","CYCLES WAYMEL","31 PLACE DU 11 NOVEMBRE","59230","SAINT AMAND","03.27.48.98.56","","France","",""
"101401","LE DOMAINE DU VELO","CYCLES DESSY","23 ALLEE DE L'AUBEPINE","59470","WORMHOUT","03.28.62.95.48","","France","",""
"101558","CYCLES GERARD RICOUART SARL","146 RUE MONTLUC","","62610","ARDRES","03.21.00.95.37","","France","",""
"101767","AUVER CYCLE NATURE SARL","24 BIS AVENUE MENDES FRAN","","63500","ISSOIRE","04 73 89 54 20","","France","",""
"100188","VELO NEW'S 64","VELOLAND BIDART","RN 10","64210","BIDART","05.59.41.06.33","","France","",""
"101552","TILLOUS CYCLES S A R L","65 BIS RUE MARCEL LOUBENS","","64570","ARETTE","05.59.88.90.61","","France","",""
"101749","DITHURBIDE","47-49 AVENUE DU REGIMENT","","65000","TARBES","05 62 93 20 89","","France","",""
"001170","ARBES H.","10 AVENUE FRANCOIS ABADIE","65100","LOURDES","05.62.94.05.51","","France","",""
"101243","CAP CYCLES SARL","CULTURE VELO PERPIGNAN","CC ROUSSILLON LITTORAL RUE M ALLEGRET","66600","RIVESALTES","04.68.35.66.18","","France","",""
"101507","DVELOS","STRASBOURG VELO","3 RUE EMILE MATHIS","67800","HOENHEIM","03.88.18.70.47","","France","",""
"000238","MANNHEIM","3 B ROUTE DE RODEREN","","68800","VIEUX THANN","03.89.37.32.09","","France","",""
"100151","VERAN CYCLES","112 QUAI PIERRE SCIZE","","69005","LYON","04.78.27.22.41","","France","",""
"000227","LEDUCQ","4 AVENUE CHARLES DE GAULL","","69170","TARARE","04.74.63.09.22","","France","",""
"101726","JCBIKE","BOUTICYCLE","69 CHEMIN DU CORNU ZI DU CORNU","69210","FLEURIEUX SUR L'ARBRESLE","06.03.52.12.63","","France","",""
"101050","G. CYCLES","MR CAPOGNA GREGORY","74 AVENUE EDOUARD MILLAUD","69290","CRAPONNE","04.78.45.96.19","","France","",""
"101697","BOURBON SPORTS","23-25 RUE DU COMMERCE","","71140","BOURBON LANCY","03.85.85.34.13","","France","",""
"101677","MONDOVELO LE MANS NORD","SPORT VELO 72","ZONE DE L'ARDOISE PARC MANCEAU","72000","LE MANS","02 43 51 16 00","","France","",""
"101082","MONDOVELO LE MANS SUD","EDEN VELO SARL","ZAC DES HUNAUDIERES FAMILY VILLAGE","72230","RUAUDIN","02.43.78.50.90","","France","",""
"101526","G D VELOS SARL","CULTURE VELO ALBERTVILLE","271 AVENUE GEORGES POMPIDOU","73200","GILLY SUR ISERE","04.79.32.18.42","","France","",""
"000278","DVELOS","SAVOIE VELO SAS","350 AVENUE DE CHAMBERY","73230","ST ALBAN LEYSSE","04.79.25.46.84","","France","",""
"101024","DVELOS AIX LES BAINS","SAS AIX VELO","CHEMIN DE LA BOISIERE","73420","DRUMETTAZ CLARAFOND","04.79.52.35.41","","France","",""
"000984","VENZIN BRUNO","7 RUE DU DOCTEUR FAVRE","","74100","ANNEMASSE","04.50.37.13.16","","France","",""
"101404","CHABLAIS CYCLES SARL","CULTURE VELO THONON","21 CHEMIN DE RONDE","74200","THONON LES BAINS","04.50.26.12.87","","France","",""
"100658","DVELOS ANNECY","ANNECY SARL","390 ROUTE DES PRES ROLLIE","74330","SILLINGY","04.50.09.50.54","","France","",""
"101506","B2CYCLES SARL","CULTURE VELO ANNECY","11 AVENUE DE PERIAZ","74600","SEYNOD","04.50.10.02.02","","France","",""
"101747","ROUE LIBRE","49 RUE SAINT ELOI","","74700","SALLANCHES","09 83 86 96 67","","France","",""
"000979","CRAN CYCLES","7 AVENUE DE LA REPUBLIQUE","","74960","CRAN GEVRIER","04.50.57.21.73","","France","",""
"000456","CMR PARIS","CYCLES LAURENT","9 BOULEVARD VOLTAIRE","75011","PARIS","01.47.00.27.47","","France","",""
"001722","FRANSCOOP PARIS","47 RUE SERVAN","","75011","PARIS","01.47.00.68.43","","France","",""
"001407","DARNANVILLE BARENTIN","2 ALLEE DE LA COTONIERE","","76570","PAVILLY","02.35.91.02.25","","France","",""
"101892","PASSION VELO","BOUTICYCLE ST GERMAIN EN","2 RUE DU PRIOLET","78100","ST GERMAIN EN LAYE","06.08.96.84.99","","France","",""
"000957","OMNIUM DU CYCLE (78)","MONSIEUR DRAMARD","34 RUE PATENOTRE","78120","RAMBOUILLET","01.34.85.56.15","","France","",""
"100767","UDAC SARL","DISTRI CYCLE PARIS OUEST","31 BOULEVARD CARNOT","78250","HARDRICOURT","01.30.22.47.67","","France","",""
"101438","SUMMUM BIKE","CYCLES CEDRIC JEANROCH","11 RUE DES TILLEULS","78960","VOISINS LE BRETONNEUX","01.30.64.18.48","","France","",""
"101766","AP ROQUES","CULTURE VELO CASTRES","BOULEVARD PIERRE MENDES France","81100","CASTRES","05.63.50.14.14","","France","",""
"000008","FUNWAY CYCLES","LES 4 CHEMINS","RN 98","83130","LA GARDE","04.94.75.97.89","","France","",""
"000754","CAD","Z.I. SAINT MARTIN","829 ROUTE DES LOUBES","83400","HYERES","04.94.65.07.69","","France","",""
"000545","BERAUD","BOUTICYCLE FREJUS","7 ROND POINT DE LA GENDARMERIE","83600","FREJUS-PLAGE","04.94.51.20.20","","France","",""
"101364","PLANETE VELO SARL","2 AVENUE LOCARNO","FORUM DES BENEDICTINS","87000","LIMOGES","05.55.42.66.87","","France","",""
"001580","CYCLES THOMAS SARL","1 ESPACE COMMERCIAL ST MI","RUE EMILE ZOLA","88000","EPINAL","03.29.32.62.72","","France","",""
"101602","CYCLE 90 SARL","CYCLEXPERTS","4 RUE DU GENERAL DE GAULLE","90400","DANJOUTIN","03.84.90.37.26","","France","",""
"101008","PROMOVELO BELLOUIS","ROUTE DE CHATEAUFORT","","91190","GIF SUR YVETTE","01.69.28.62.78","","France","",""
"644","CLEVEDE A.","38 RUE D'ESTIENNE D'ORVES","","91370","VERRIERES LE BUISSON","01.60.11.60.50","","France","",""
"101563","GP CYCLES SARL","BOUTICYCLE","202 ROUTE DE CORBEIL","91700","STE GENEVIEVE DES BOIS","01.60.15.94.04","","France","",""
"101049","LA GAZELLE","EURL CYCLES LEROY ET FILS","47 BOULEVARD JEAN JAURES","92100","BOULOGNE","01.46.05.10.70","","France","",""
"000586","C.R.C. CYCLES VANVES","9 RUE VAUDETARD","","92130","ISSY LES MOULINEAUX","01.45.29.10.42","","France","",""
"000530","DARNOIS CYCLES","CYCLEXPERT","79 BOULEVARD MARECHAL JOFFRE RN 20","92340","BOURG LA REINE","01.49.84.42.82","","France","",""
"100929","CYCLES DU CHATEAU","4 RUE DE LAGNY","","93100","MONTREUIL SOUS BOIS","01.48.51.66.20","","France","",""
"000872","CYCLES TILLY","6 RUE JULES PRINCET","93600","AULNAY SOUS BOIS","01.48.69.62.44","","France","",""
"101863","FYREM","PROCYCLING-IMPORT","171 BOULEVARD D'ALSACE LORRAINE","94170","LE PERREUX SUR MARNE","09.81.98.85.18","","France","",""
"000661","VELO NEWS MERY S/O","7 RUE MARCEL PERRIN","","95540","MERY S/OISE","01.34.48.10.10","","France","",""